{
  "type": "FeatureCollection",
  "features": [
    {
      "type": "Feature",
      "properties": {
        "norad_id": 35052,
        "name": "IRIDIUM 33 DEB",
        "group": "iridium-33-debris",
        "lat": 21.561441988301866,
        "lon": -159.01289406990125,
        "alt_km": 758.6637756158361,
        "timestamp": "2025-12-08T03:50:07.381742+00:00",
        "meta_object_name": "IRIDIUM 33 DEB",
        "meta_object_id": "1997-051NY",
        "meta_epoch": "2025-12-07T02:03:39.660480",
        "meta_mean_motion": 14.38482412,
        "meta_eccentricity": 0.00136685,
        "meta_inclination": 86.3314,
        "meta_ra_of_asc_node": 22.9,
        "meta_arg_of_pericenter": 100.7655,
        "meta_mean_anomaly": 259.5083,
        "meta_ephemeris_type": 0,
        "meta_classification_type": "U",
        "meta_norad_cat_id": 35052,
        "meta_element_set_no": 999,
        "meta_rev_at_epoch": 87194,
        "meta_bstar": 0.00033348424,
        "meta_mean_motion_dot": 1.039e-05,
        "meta_mean_motion_ddot": 0,
        "tle_line1": "1 35052U 97051NY  25341.08587570  .00001039  00000+0  33348-3 0  9998",
        "tle_line2": "2 35052  86.3314  22.9000 0013668 100.7655 259.5083 14.38482412871941"
      },
      "geometry": {
        "type": "Point",
        "coordinates": [
          -159.01289406990125,
          21.561441988301866
        ]
      }
    },
    {
      "type": "Feature",
      "properties": {
        "norad_id": 35080,
        "name": "IRIDIUM 33 DEB",
        "group": "iridium-33-debris",
        "lat": -81.17566817173405,
        "lon": 29.272797742254884,
        "alt_km": 613.0119296447738,
        "timestamp": "2025-12-08T03:50:07.381752+00:00",
        "meta_object_name": "IRIDIUM 33 DEB",
        "meta_object_id": "1997-051PF",
        "meta_epoch": "2025-12-07T03:56:57.228000",
        "meta_mean_motion": 14.84984073,
        "meta_eccentricity": 0.00622366,
        "meta_inclination": 86.2081,
        "meta_ra_of_asc_node": 55.0388,
        "meta_arg_of_pericenter": 201.0012,
        "meta_mean_anomaly": 158.8655,
        "meta_ephemeris_type": 0,
        "meta_classification_type": "U",
        "meta_norad_cat_id": 35080,
        "meta_element_set_no": 999,
        "meta_rev_at_epoch": 69605,
        "meta_bstar": 0.011261596,
        "meta_mean_motion_dot": 0.00100643,
        "meta_mean_motion_ddot": 0,
        "tle_line1": "1 35080U 97051PF  25341.16455125  .00100643  00000+0  11262-1 0  9998",
        "tle_line2": "2 35080  86.2081  55.0388 0062236 201.0012 158.8655 14.84984073696059"
      },
      "geometry": {
        "type": "Point",
        "coordinates": [
          29.272797742254884,
          -81.17566817173405
        ]
      }
    },
    {
      "type": "Feature",
      "properties": {
        "norad_id": 35297,
        "name": "IRIDIUM 33 DEB",
        "group": "iridium-33-debris",
        "lat": -44.36062575253588,
        "lon": 61.171976496552944,
        "alt_km": 759.8952944950761,
        "timestamp": "2025-12-08T03:50:07.381762+00:00",
        "meta_object_name": "IRIDIUM 33 DEB",
        "meta_object_id": "1997-051PM",
        "meta_epoch": "2025-12-06T00:31:29.302752",
        "meta_mean_motion": 14.45108459,
        "meta_eccentricity": 0.00170329,
        "meta_inclination": 86.3867,
        "meta_ra_of_asc_node": 65.6268,
        "meta_arg_of_pericenter": 161.2449,
        "meta_mean_anomaly": 198.9384,
        "meta_ephemeris_type": 0,
        "meta_classification_type": "U",
        "meta_norad_cat_id": 35297,
        "meta_element_set_no": 999,
        "meta_rev_at_epoch": 70329,
        "meta_bstar": 0.0012426888,
        "meta_mean_motion_dot": 4.371e-05,
        "meta_mean_motion_ddot": 0,
        "tle_line1": "1 35297U 97051PM  25340.02186693  .00004371  00000+0  12427-2 0  9999",
        "tle_line2": "2 35297  86.3867  65.6268 0017032 161.2449 198.9384 14.45108459703293"
      },
      "geometry": {
        "type": "Point",
        "coordinates": [
          61.171976496552944,
          -44.36062575253588
        ]
      }
    },
    {
      "type": "Feature",
      "properties": {
        "norad_id": 35299,
        "name": "IRIDIUM 33 DEB",
        "group": "iridium-33-debris",
        "lat": -41.10295759542928,
        "lon": 31.933942657978942,
        "alt_km": 801.2365112408434,
        "timestamp": "2025-12-08T03:50:07.381772+00:00",
        "meta_object_name": "IRIDIUM 33 DEB",
        "meta_object_id": "1997-051PP",
        "meta_epoch": "2025-12-06T14:24:15.119136",
        "meta_mean_motion": 14.40815495,
        "meta_eccentricity": 0.0058804,
        "meta_inclination": 86.2886,
        "meta_ra_of_asc_node": 35.859,
        "meta_arg_of_pericenter": 121.9037,
        "meta_mean_anomaly": 32.622,
        "meta_ephemeris_type": 0,
        "meta_classification_type": "U",
        "meta_norad_cat_id": 35299,
        "meta_element_set_no": 999,
        "meta_rev_at_epoch": 86242,
        "meta_bstar": 0.0014232955,
        "meta_mean_motion_dot": 4.671e-05,
        "meta_mean_motion_ddot": 0,
        "tle_line1": "1 35299U 97051PP  25340.60017499  .00004671  00000+0  14233-2 0  9992",
        "tle_line2": "2 35299  86.2886  35.8590 0058804 121.9037  32.6220 14.40815495862424"
      },
      "geometry": {
        "type": "Point",
        "coordinates": [
          31.933942657978942,
          -41.10295759542928
        ]
      }
    },
    {
      "type": "Feature",
      "properties": {
        "norad_id": 35480,
        "name": "IRIDIUM 33 DEB",
        "group": "iridium-33-debris",
        "lat": -85.55062775813161,
        "lon": -28.0508997026619,
        "alt_km": 744.1789031472508,
        "timestamp": "2025-12-08T03:50:07.381783+00:00",
        "meta_object_name": "IRIDIUM 33 DEB",
        "meta_object_id": "1997-051QA",
        "meta_epoch": "2025-12-01T21:29:27.496896",
        "meta_mean_motion": 14.49686619,
        "meta_eccentricity": 0.00155495,
        "meta_inclination": 86.3575,
        "meta_ra_of_asc_node": 29.6125,
        "meta_arg_of_pericenter": 136.7189,
        "meta_mean_anomaly": 223.524,
        "meta_ephemeris_type": 0,
        "meta_classification_type": "U",
        "meta_norad_cat_id": 35480,
        "meta_element_set_no": 999,
        "meta_rev_at_epoch": 86874,
        "meta_bstar": 0.000651702,
        "meta_mean_motion_dot": 2.53e-05,
        "meta_mean_motion_ddot": 0,
        "tle_line1": "1 35480U 97051QA  25335.89545714  .00002530  00000+0  65170-3 0  9994",
        "tle_line2": "2 35480  86.3575  29.6125 0015549 136.7189 223.5240 14.49686619868745"
      },
      "geometry": {
        "type": "Point",
        "coordinates": [
          -28.0508997026619,
          -85.55062775813161
        ]
      }
    },
    {
      "type": "Feature",
      "properties": {
        "norad_id": 35484,
        "name": "IRIDIUM 33 DEB",
        "group": "iridium-33-debris",
        "lat": -6.743327937522071,
        "lon": -5.539651564040848,
        "alt_km": 589.7954741943904,
        "timestamp": "2025-12-08T03:50:07.381793+00:00",
        "meta_object_name": "IRIDIUM 33 DEB",
        "meta_object_id": "1997-051QE",
        "meta_epoch": "2025-12-01T19:32:14.692416",
        "meta_mean_motion": 14.97587734,
        "meta_eccentricity": 0.00218288,
        "meta_inclination": 86.3628,
        "meta_ra_of_asc_node": 357.8533,
        "meta_arg_of_pericenter": 162.6444,
        "meta_mean_anomaly": 197.5538,
        "meta_ephemeris_type": 0,
        "meta_classification_type": "U",
        "meta_norad_cat_id": 35484,
        "meta_element_set_no": 999,
        "meta_rev_at_epoch": 61852,
        "meta_bstar": 0.0025030806,
        "meta_mean_motion_dot": 0.00029486,
        "meta_mean_motion_ddot": 0,
        "tle_line1": "1 35484U 97051QE  25335.81405894  .00029486  00000+0  25031-2 0  9994",
        "tle_line2": "2 35484  86.3628 357.8533 0021828 162.6444 197.5538 14.97587734618526"
      },
      "geometry": {
        "type": "Point",
        "coordinates": [
          -5.539651564040848,
          -6.743327937522071
        ]
      }
    },
    {
      "type": "Feature",
      "properties": {
        "norad_id": 35488,
        "name": "IRIDIUM 33 DEB",
        "group": "iridium-33-debris",
        "lat": -0.22843855746737154,
        "lon": -57.02558190284059,
        "alt_km": 611.6431547258699,
        "timestamp": "2025-12-08T03:50:07.381803+00:00",
        "meta_object_name": "IRIDIUM 33 DEB",
        "meta_object_id": "1997-051QJ",
        "meta_epoch": "2025-12-06T08:06:29.076192",
        "meta_mean_motion": 14.82814099,
        "meta_eccentricity": 0.00304933,
        "meta_inclination": 86.3261,
        "meta_ra_of_asc_node": 303.8283,
        "meta_arg_of_pericenter": 63.1444,
        "meta_mean_anomaly": 297.2891,
        "meta_ephemeris_type": 0,
        "meta_classification_type": "U",
        "meta_norad_cat_id": 35488,
        "meta_element_set_no": 999,
        "meta_rev_at_epoch": 88171,
        "meta_bstar": 0.0025956954,
        "meta_mean_motion_dot": 0.00021231,
        "meta_mean_motion_ddot": 0,
        "tle_line1": "1 35488U 97051QJ  25340.33783653  .00021231  00000+0  25957-2 0  9990",
        "tle_line2": "2 35488  86.3261 303.8283 0030493  63.1444 297.2891 14.82814099881713"
      },
      "geometry": {
        "type": "Point",
        "coordinates": [
          -57.02558190284059,
          -0.22843855746737154
        ]
      }
    }
  ]
}